[{"COMMENT":"GENERATED VIA SPACETRACK.ORG API","ORIGINATOR":"18 SPCS","NORAD_CAT_ID":"45120","OBJECT_NAME":"VPM","OBJECT_TYPE":"PAYLOAD","CLASSIFICATION_TYPE":"U","INTLDES":"19071K","EPOCH":"2020-02-19 12:27:28","EPOCH_MICROSECONDS":"131840","MEAN_MOTION":"15.33232488","ECCENTRICITY":"0.001175","INCLINATION":"51.6418","RA_OF_ASC_NODE":"217.8367","ARG_OF_PERICENTER":"348.204","MEAN_ANOMALY":"11.8665","EPHEMERIS_TYPE":"0","ELEMENT_SET_NO":"999","REV_AT_EPOCH":"276","BSTAR":"0.00012731","MEAN_MOTION_DOT":"0.00003781","MEAN_MOTION_DDOT":"0","FILE":"2706317","TLE_LINE0":"0 VPM","TLE_LINE1":"1 45120U 19071K   20050.51907560 +.00003781 +00000-0 +12731-3 0  9996","TLE_LINE2":"2 45120 051.6418 217.8367 0011750 348.2040 011.8665 15.33232488002769","OBJECT_ID":"2019-071K","OBJECT_NUMBER":"45120","SEMIMAJOR_AXIS":"6844.312","PERIOD":"93.919","APOGEE":"474.219","PERIGEE":"458.135","DECAYED":"0"},{"COMMENT":"GENERATED VIA SPACETRACK.ORG API","ORIGINATOR":"18 SPCS","NORAD_CAT_ID":"45120","OBJECT_NAME":"VPM","OBJECT_TYPE":"PAYLOAD","CLASSIFICATION_TYPE":"U","INTLDES":"19071K","EPOCH":"2020-02-19 21:50:37","EPOCH_MICROSECONDS":"129344","MEAN_MOTION":"15.33235021","ECCENTRICITY":"0.0011784","INCLINATION":"51.6415","RA_OF_ASC_NODE":"215.9478","ARG_OF_PERICENTER":"349.6588","MEAN_ANOMALY":"10.415","EPHEMERIS_TYPE":"0","ELEMENT_SET_NO":"999","REV_AT_EPOCH":"282","BSTAR":"0.00012922","MEAN_MOTION_DOT":"0.00003844","MEAN_MOTION_DDOT":"0","FILE":"2706484","TLE_LINE0":"0 VPM","TLE_LINE1":"1 45120U 19071K   20050.91015196 +.00003844 +00000-0 +12922-3 0  9997","TLE_LINE2":"2 45120 051.6415 215.9478 0011784 349.6588 010.4150 15.33235021002824","OBJECT_ID":"2019-071K","OBJECT_NUMBER":"45120","SEMIMAJOR_AXIS":"6844.304","PERIOD":"93.919","APOGEE":"474.235","PERIGEE":"458.104","DECAYED":"0"},{"COMMENT":"GENERATED VIA SPACETRACK.ORG API","ORIGINATOR":"18 SPCS","NORAD_CAT_ID":"45120","OBJECT_NAME":"VPM","OBJECT_TYPE":"PAYLOAD","CLASSIFICATION_TYPE":"U","INTLDES":"19071K","EPOCH":"2020-02-20 13:29:11","EPOCH_MICROSECONDS":"844960","MEAN_MOTION":"15.33240234","ECCENTRICITY":"0.0011802","INCLINATION":"51.6415","RA_OF_ASC_NODE":"212.7996","ARG_OF_PERICENTER":"352.01","MEAN_ANOMALY":"8.0692","EPHEMERIS_TYPE":"0","ELEMENT_SET_NO":"999","REV_AT_EPOCH":"292","BSTAR":"0.00012001","MEAN_MOTION_DOT":"0.00003543","MEAN_MOTION_DDOT":"0","FILE":"2706925","TLE_LINE0":"0 VPM","TLE_LINE1":"1 45120U 19071K   20051.56194265 +.00003543 +00000-0 +12001-3 0  9998","TLE_LINE2":"2 45120 051.6415 212.7996 0011802 352.0100 008.0692 15.33240234002920","OBJECT_ID":"2019-071K","OBJECT_NUMBER":"45120","SEMIMAJOR_AXIS":"6844.289","PERIOD":"93.918","APOGEE":"474.232","PERIGEE":"458.076","DECAYED":"0"},{"COMMENT":"GENERATED VIA SPACETRACK.ORG API","ORIGINATOR":"18 SPCS","NORAD_CAT_ID":"45120","OBJECT_NAME":"VPM","OBJECT_TYPE":"PAYLOAD","CLASSIFICATION_TYPE":"U","INTLDES":"19071K","EPOCH":"2020-02-20 15:03:03","EPOCH_MICROSECONDS":"307968","MEAN_MOTION":"15.3324076","ECCENTRICITY":"0.0011806","INCLINATION":"51.6415","RA_OF_ASC_NODE":"212.4848","ARG_OF_PERICENTER":"352.2542","MEAN_ANOMALY":"7.8255","EPHEMERIS_TYPE":"0","ELEMENT_SET_NO":"999","REV_AT_EPOCH":"293","BSTAR":"0.00011972","MEAN_MOTION_DOT":"0.00003534","MEAN_MOTION_DDOT":"0","FILE":"2706970","TLE_LINE0":"0 VPM","TLE_LINE1":"1 45120U 19071K   20051.62712162  .00003534  00000-0  11972-3 0  9993","TLE_LINE2":"2 45120  51.6415 212.4848 0011806 352.2542   7.8255 15.33240760  2936","OBJECT_ID":"2019-071K","OBJECT_NUMBER":"45120","SEMIMAJOR_AXIS":"6844.287","PERIOD":"93.918","APOGEE":"474.233","PERIGEE":"458.072","DECAYED":"0"},{"COMMENT":"GENERATED VIA SPACETRACK.ORG API","ORIGINATOR":"18 SPCS","NORAD_CAT_ID":"45120","OBJECT_NAME":"VPM","OBJECT_TYPE":"PAYLOAD","CLASSIFICATION_TYPE":"U","INTLDES":"19071K","EPOCH":"2020-02-20 19:44:37","EPOCH_MICROSECONDS":"684896","MEAN_MOTION":"15.33242238","ECCENTRICITY":"0.0011807","INCLINATION":"51.6415","RA_OF_ASC_NODE":"211.5403","ARG_OF_PERICENTER":"352.9967","MEAN_ANOMALY":"7.0848","EPHEMERIS_TYPE":"0","ELEMENT_SET_NO":"999","REV_AT_EPOCH":"296","BSTAR":"0.00011653","MEAN_MOTION_DOT":"0.0000343","MEAN_MOTION_DDOT":"0","FILE":"2707073","TLE_LINE0":"0 VPM","TLE_LINE1":"1 45120U 19071K   20051.82265839 +.00003430 +00000-0 +11653-3 0  9990","TLE_LINE2":"2 45120 051.6415 211.5403 0011807 352.9967 007.0848 15.33242238002967","OBJECT_ID":"2019-071K","OBJECT_NUMBER":"45120","SEMIMAJOR_AXIS":"6844.283","PERIOD":"93.918","APOGEE":"474.229","PERIGEE":"458.067","DECAYED":"0"},{"COMMENT":"GENERATED VIA SPACETRACK.ORG API","ORIGINATOR":"18 SPCS","NORAD_CAT_ID":"45120","OBJECT_NAME":"VPM","OBJECT_TYPE":"PAYLOAD","CLASSIFICATION_TYPE":"U","INTLDES":"19071K","EPOCH":"2020-02-21 11:23:12","EPOCH_MICROSECONDS":"179328","MEAN_MOTION":"15.33245818","ECCENTRICITY":"0.001183","INCLINATION":"51.6414","RA_OF_ASC_NODE":"208.3921","ARG_OF_PERICENTER":"355.3747","MEAN_ANOMALY":"4.7124","EPHEMERIS_TYPE":"0","ELEMENT_SET_NO":"999","REV_AT_EPOCH":"306","BSTAR":"0.00009219","MEAN_MOTION_DOT":"0.00002634","MEAN_MOTION_DDOT":"0","FILE":"2707433","TLE_LINE0":"0 VPM","TLE_LINE1":"1 45120U 19071K   20052.47444652 +.00002634 +00000-0 +92190-4 0  9995","TLE_LINE2":"2 45120 051.6414 208.3921 0011830 355.3747 004.7124 15.33245818003064","OBJECT_ID":"2019-071K","OBJECT_NUMBER":"45120","SEMIMAJOR_AXIS":"6844.272","PERIOD":"93.918","APOGEE":"474.234","PERIGEE":"458.041","DECAYED":"0"},{"COMMENT":"GENERATED VIA SPACETRACK.ORG API","ORIGINATOR":"18 SPCS","NORAD_CAT_ID":"45120","OBJECT_NAME":"VPM","OBJECT_TYPE":"PAYLOAD","CLASSIFICATION_TYPE":"U","INTLDES":"19071K","EPOCH":"2020-02-21 19:12:29","EPOCH_MICROSECONDS":"357856","MEAN_MOTION":"15.33248269","ECCENTRICITY":"0.0011821","INCLINATION":"51.6414","RA_OF_ASC_NODE":"206.8181","ARG_OF_PERICENTER":"356.558","MEAN_ANOMALY":"3.5319","EPHEMERIS_TYPE":"0","ELEMENT_SET_NO":"999","REV_AT_EPOCH":"311","BSTAR":"0.000092716","MEAN_MOTION_DOT":"0.00002651","MEAN_MOTION_DDOT":"0","FILE":"2707587","TLE_LINE0":"0 VPM","TLE_LINE1":"1 45120U 19071K   20052.80033979  .00002651  00000-0  92716-4 0  9991","TLE_LINE2":"2 45120  51.6414 206.8181 0011821 356.5580   3.5319 15.33248269  3115","OBJECT_ID":"2019-071K","OBJECT_NUMBER":"45120","SEMIMAJOR_AXIS":"6844.265","PERIOD":"93.918","APOGEE":"474.221","PERIGEE":"458.039","DECAYED":"0"},{"COMMENT":"GENERATED VIA SPACETRACK.ORG API","ORIGINATOR":"18 SPCS","NORAD_CAT_ID":"45120","OBJECT_NAME":"VPM","OBJECT_TYPE":"PAYLOAD","CLASSIFICATION_TYPE":"U","INTLDES":"19071K","EPOCH":"2020-02-21 20:46:20","EPOCH_MICROSECONDS":"809632","MEAN_MOTION":"15.33248079","ECCENTRICITY":"0.001183","INCLINATION":"51.6414","RA_OF_ASC_NODE":"206.5033","ARG_OF_PERICENTER":"356.7886","MEAN_ANOMALY":"3.3018","EPHEMERIS_TYPE":"0","ELEMENT_SET_NO":"999","REV_AT_EPOCH":"312","BSTAR":"0.000085948","MEAN_MOTION_DOT":"0.0000243","MEAN_MOTION_DDOT":"0","FILE":"2707636","TLE_LINE0":"0 VPM","TLE_LINE1":"1 45120U 19071K   20052.86551863 +.00002430 +00000-0 +85948-4 0  9998","TLE_LINE2":"2 45120 051.6414 206.5033 0011830 356.7886 003.3018 15.33248079003123","OBJECT_ID":"2019-071K","OBJECT_NUMBER":"45120","SEMIMAJOR_AXIS":"6844.266","PERIOD":"93.918","APOGEE":"474.227","PERIGEE":"458.034","DECAYED":"0"},{"COMMENT":"GENERATED VIA SPACETRACK.ORG API","ORIGINATOR":"18 SPCS","NORAD_CAT_ID":"45120","OBJECT_NAME":"VPM","OBJECT_TYPE":"PAYLOAD","CLASSIFICATION_TYPE":"U","INTLDES":"19071K","EPOCH":"2020-02-22 13:58:46","EPOCH_MICROSECONDS":"530336","MEAN_MOTION":"15.33252623","ECCENTRICITY":"0.0011855","INCLINATION":"51.6414","RA_OF_ASC_NODE":"203.0403","ARG_OF_PERICENTER":"359.381","MEAN_ANOMALY":"0.7155","EPHEMERIS_TYPE":"0","ELEMENT_SET_NO":"999","REV_AT_EPOCH":"323","BSTAR":"0.000089022","MEAN_MOTION_DOT":"0.00002531","MEAN_MOTION_DDOT":"0","FILE":"2708018","TLE_LINE0":"0 VPM","TLE_LINE1":"1 45120U 19071K   20053.58248299 +.00002531 +00000-0 +89022-4 0  9993","TLE_LINE2":"2 45120 051.6414 203.0403 0011855 359.3810 000.7155 15.33252623003234","OBJECT_ID":"2019-071K","OBJECT_NUMBER":"45120","SEMIMAJOR_AXIS":"6844.252","PERIOD":"93.917","APOGEE":"474.231","PERIGEE":"458.003","DECAYED":"0"},{"COMMENT":"GENERATED VIA SPACETRACK.ORG API","ORIGINATOR":"18 SPCS","NORAD_CAT_ID":"45120","OBJECT_NAME":"VPM","OBJECT_TYPE":"PAYLOAD","CLASSIFICATION_TYPE":"U","INTLDES":"19071K","EPOCH":"2020-02-22 20:14:12","EPOCH_MICROSECONDS":"213024","MEAN_MOTION":"15.33254101","ECCENTRICITY":"0.0011864","INCLINATION":"51.6414","RA_OF_ASC_NODE":"201.7812","ARG_OF_PERICENTER":"0.3164","MEAN_ANOMALY":"359.7823","EPHEMERIS_TYPE":"0","ELEMENT_SET_NO":"999","REV_AT_EPOCH":"327","BSTAR":"0.000089999","MEAN_MOTION_DOT":"0.00002563","MEAN_MOTION_DDOT":"0","FILE":"2708168","TLE_LINE0":"0 VPM","TLE_LINE1":"1 45120U 19071K   20053.84319691  .00002563  00000-0  89999-4 0  9995","TLE_LINE2":"2 45120  51.6414 201.7812 0011864   0.3164 359.7823 15.33254101  3274","OBJECT_ID":"2019-071K","OBJECT_NUMBER":"45120","SEMIMAJOR_AXIS":"6844.248","PERIOD":"93.917","APOGEE":"474.233","PERIGEE":"457.993","DECAYED":"0"},{"COMMENT":"GENERATED VIA SPACETRACK.ORG API","ORIGINATOR":"18 SPCS","NORAD_CAT_ID":"45120","OBJECT_NAME":"VPM","OBJECT_TYPE":"PAYLOAD","CLASSIFICATION_TYPE":"U","INTLDES":"19071K","EPOCH":"2020-02-22 21:48:03","EPOCH_MICROSECONDS":"635424","MEAN_MOTION":"15.33254279","ECCENTRICITY":"0.0011871","INCLINATION":"51.6414","RA_OF_ASC_NODE":"201.4664","ARG_OF_PERICENTER":"0.548","MEAN_ANOMALY":"359.5513","EPHEMERIS_TYPE":"0","ELEMENT_SET_NO":"999","REV_AT_EPOCH":"328","BSTAR":"0.000087947","MEAN_MOTION_DOT":"0.00002496","MEAN_MOTION_DDOT":"0","FILE":"2708216","TLE_LINE0":"0 VPM","TLE_LINE1":"1 45120U 19071K   20053.90837541 +.00002496 +00000-0 +87947-4 0  9997","TLE_LINE2":"2 45120 051.6414 201.4664 0011871 000.5480 359.5513 15.33254279003288","OBJECT_ID":"2019-071K","OBJECT_NUMBER":"45120","SEMIMAJOR_AXIS":"6844.247","PERIOD":"93.917","APOGEE":"474.237","PERIGEE":"457.987","DECAYED":"0"}]